NOAA 1                  
1 04793U 70106A   24357.77616566 -.00000039  00000+0  27101-4 0  9999
2 04793 101.4199  43.2537 0031259 328.3023 142.2055 12.54037835472825
NOAA 2 (ITOS-D)         
1 06235U 72082A   24357.88187453 -.00000014  00000+0  20446-3 0  9994
2 06235 102.0227 359.0753 0004171 121.2469 301.7181 12.53192663387144
NOAA 3                  
1 06920U 73086A   24358.00318600 -.00000019  00000+0  20398-3 0  9996
2 06920 102.2868 355.6988 0006505  38.8975 334.6689 12.40376188314980
NOAA 4                  
1 07529U 74089A   24358.00684192 -.00000022  00000+0  15637-3 0  9992
2 07529 101.9999 354.0868 0009054 147.6209 222.4157 12.53189341291972
NOAA 5                  
1 09057U 76077A   24357.91349824 -.00000012  00000+0  26280-3 0  9993
2 09057 102.2363 331.1871 0009569 251.3866 165.2686 12.37810774187509
TIROS N                 
1 11060U 78096A   24358.11902607  .00000403  00000+0  21264-3 0  9990
2 11060  98.5104  31.2643 0010635  15.5796 344.5706 14.19052000602249
NOAA 6                  
1 11416U 79057A   24357.68997914  .00000605  00000+0  22823-3 0  9995
2 11416  98.6159  18.6141 0010947  65.7365 294.4963 14.34914511373280
NOAA 7                  
1 12553U 81059A   24358.14045754  .00000159  00000+0  99958-4 0  9999
2 12553  98.8699  57.4121 0011705  20.3417 339.8222 14.17640499248309
NOAA 8                  
1 13923U 83022A   24358.07608193  .00000418  00000+0  18117-3 0  9992
2 13923  98.7361 358.4732 0015592  44.0688 316.1734 14.29488159174017
NOAA 9                  
1 15427U 84123A   24358.02706403  .00000328  00000+0  18689-3 0  9998
2 15427  99.1244   0.1897 0015639  82.6416 340.7493 14.16802406 67023
NOAA 10                 
1 16969U 86073A   24357.94073635  .00000409  00000+0  17933-3 0  9991
2 16969  98.6599 342.3124 0012750 136.0956 278.8175 14.28861725992364
NOAA 11                 
1 19531U 88089A   24357.86515537  .00000200  00000+0  12333-3 0  9999
2 19531  98.5476 312.3781 0012036  55.5593 304.6717 14.15667786870889
NOAA 12                 
1 21263U 91032A   24358.18028298  .00000306  00000+0  14489-3 0  9996
2 21263  98.5740 345.2094 0013901 164.6372 195.5234 14.26499358748086
NOAA 13                 
1 22739U 93050A   24357.88634521  .00000339  00000+0  20266-3 0  9991
2 22739  98.6345 308.4813 0008542 231.1956 128.8455 14.13412815617145
NOAA 14                 
1 23455U 94089A   24358.17529420  .00000187  00000+0  11871-3 0  9997
2 23455  98.4476 343.8533 0009137 192.3229 167.7723 14.14513218546958
NOAA 15                 
1 25338U 98030A   24358.16961733  .00000372  00000+0  17096-3 0  9996
2 25338  98.5525  21.2212 0011079 128.7021 231.5152 14.26832483384382
NOAA 16                 
1 26536U 00055A   24358.13304354  .00000224  00000+0  14019-3 0  9992
2 26536  98.5098  28.8922 0011335  57.9293 302.2980 14.13722023250772
NOAA 17                 
1 27453U 02032A   24358.20385283  .00000499  00000+0  22855-3 0  9997
2 27453  98.7899 308.9505 0012555 117.4439 242.8018 14.25853786169897
NOAA 18                 
1 28654U 05018A   24358.15694813  .00000416  00000+0  24437-3 0  9991
2 28654  98.8599  73.4345 0013390 245.4212 114.5566 14.13460391  9950
NOAA 19                 
1 33591U 09005A   24358.13629095  .00000365  00000+0  21890-3 0  9998
2 33591  99.0234  55.7182 0014626 118.2191 242.0459 14.13236285818312
SUOMI NPP               
1 37849U 11061A   24358.15306745  .00000263  00000+0  14571-3 0  9994
2 37849  98.7421 293.4344 0002224  75.2002 284.9420 14.19522255681672
NOAA 20 (JPSS-1)        
1 43013U 17073A   24358.16908233  .00000236  00000+0  13285-3 0  9995
2 43013  98.7262 293.0608 0002040  61.4991 298.6391 14.19523267367713
NOAA 21 (JPSS-2)        
1 54234U 22150A   24357.85424927  .00000249  00000+0  13878-3 0  9994
2 54234  98.7115 293.3196 0001001   8.2292 351.8900 14.19573752109740
